{"type": "FeatureCollection", "features": [ {"type": "Feature", "properties": {"norad_id": 34910, "name": "COSMOS 2251 DEB", "group": "cosmos-2251-debris", "lat": 24.744828814275706, "lon": 98.74829974138875, "alt_km": 1467.0076125064897, "timestamp": "2025-12-19T06:59:44.302185+00:00", "meta": {"OBJECT_NAME": "COSMOS 2251 DEB", "OBJECT_ID": "1993-036ADF", "EPOCH": "2025-12-16T00:48:30.580128", "MEAN_MOTION": 13.37690746, "ECCENTRICITY": 0.04679747, "INCLINATION": 73.876, "RA_OF_ASC_NODE": 96.2259, "ARG_OF_PERICENTER": 214.6056, "MEAN_ANOMALY": 328.1497, "EPHEMERIS_TYPE": 0, "CLASSIFICATION_TYPE": "U", "NORAD_CAT_ID": 34910, "ELEMENT_SET_NO": 999, "REV_AT_EPOCH": 81568, "BSTAR": 0.0011529423, "MEAN_MOTION_DOT": 1.118e-05, "MEAN_MOTION_DDOT": 0}, "tle": {"line1": "1 34910U 93036ADF 25350.03368727  .00001118  00000+0  11529-2 0  9999", "line2": "2 34910  73.8760  96.2259 0467974 214.6056 328.1497 13.37690746815682"}}, "geometry": {"type": "Point", "coordinates": [98.74829974138875, 24.744828814275706]}}, {"type": "Feature", "properties": {"norad_id": 34911, "name": "COSMOS 2251 DEB", "group": "cosmos-2251-debris", "lat": 26.591963424452793, "lon": 44.022739687160076, "alt_km": 748.0131115514469, "timestamp": "2025-12-19T06:59:44.302195+00:00", "meta": {"OBJECT_NAME": "COSMOS 2251 DEB", "OBJECT_ID": "1993-036ADG", "EPOCH": "2025-12-18T03:01:44.907744", "MEAN_MOTION": 14.59380767, "ECCENTRICITY": 0.00838464, "INCLINATION": 74.0407, "RA_OF_ASC_NODE": 234.4788, "ARG_OF_PERICENTER": 358.5052, "MEAN_ANOMALY": 153.7057, "EPHEMERIS_TYPE": 0, "CLASSIFICATION_TYPE": "U", "NORAD_CAT_ID": 34911, "ELEMENT_SET_NO": 999, "REV_AT_EPOCH": 88665, "BSTAR": 0.00011478995, "MEAN_MOTION_DOT": 5.38e-06, "MEAN_MOTION_DDOT": 0}, "tle": {"line1": "1 34911U 93036ADG 25352.12621421  .00000538  00000+0  11479-3 0  9995", "line2": "2 34911  74.0407 234.4788 0083846 358.5052 153.7057 14.59380767886656"}}, "geometry": {"type": "Point", "coordinates": [44.022739687160076, 26.591963424452793]}}, {"type": "Feature", "properties": {"norad_id": 34913, "name": "COSMOS 2251 DEB", "group": "cosmos-2251-debris", "lat": -63.41897839173371, "lon": -124.424823436346, "alt_km": 782.3168773792759, "timestamp": "2025-12-19T06:59:44.302205+00:00", "meta": {"OBJECT_NAME": "COSMOS 2251 DEB", "OBJECT_ID": "1993-036ADJ", "EPOCH": "2025-12-18T11:46:22.154880", "MEAN_MOTION": 14.3463922, "ECCENTRICITY": 0.00205748, "INCLINATION": 74.0285, "RA_OF_ASC_NODE": 271.9591, "ARG_OF_PERICENTER": 20.2636, "MEAN_ANOMALY": 96.5322, "EPHEMERIS_TYPE": 0, "CLASSIFICATION_TYPE": "U", "NORAD_CAT_ID": 34913, "ELEMENT_SET_NO": 999, "REV_AT_EPOCH": 65270, "BSTAR": 4.1914409e-05, "MEAN_MOTION_DOT": 9.3e-07, "MEAN_MOTION_DDOT": 0}, "tle": {"line1": "1 34913U 93036ADJ 25352.49053420  .00000093  00000+0  41914-4 0  9999", "line2": "2 34913  74.0285 271.9591 0020574  20.2636  96.5322 14.34639220652700"}}, "geometry": {"type": "Point", "coordinates": [-124.424823436346, -63.41897839173371]}}, {"type": "Feature", "properties": {"norad_id": 34918, "name": "COSMOS 2251 DEB", "group": "cosmos-2251-debris", "lat": -13.701626387586998, "lon": -62.86561462598419, "alt_km": 688.4020421998293, "timestamp": "2025-12-19T06:59:44.302216+00:00", "meta": {"OBJECT_NAME": "COSMOS 2251 DEB", "OBJECT_ID": "1993-036ADP", "EPOCH": "2025-12-18T06:44:15.082368", "MEAN_MOTION": 14.61294427, "ECCENTRICITY": 0.00332984, "INCLINATION": 74.0711, "RA_OF_ASC_NODE": 303.0548, "ARG_OF_PERICENTER": 269.5934, "MEAN_ANOMALY": 160.816, "EPHEMERIS_TYPE": 0, "CLASSIFICATION_TYPE": "U", "NORAD_CAT_ID": 34918, "ELEMENT_SET_NO": 999, "REV_AT_EPOCH": 65417, "BSTAR": 0.0015824727, "MEAN_MOTION_DOT": 7.853e-05, "MEAN_MOTION_DDOT": 0}, "tle": {"line1": "1 34918U 93036ADP 25352.28073012  .00007853  00000+0  15825-2 0  9991", "line2": "2 34918  74.0711 303.0548 0033298 269.5934 160.8160 14.61294427654178"}}, "geometry": {"type": "Point", "coordinates": [-62.86561462598419, -13.701626387586998]}}, {"type": "Feature", "properties": {"norad_id": 34924, "name": "COSMOS 2251 DEB", "group": "cosmos-2251-debris", "lat": -44.12751425820049, "lon": 60.8336008362797, "alt_km": 733.2996613514806, "timestamp": "2025-12-19T06:59:44.302226+00:00", "meta": {"OBJECT_NAME": "COSMOS 2251 DEB", "OBJECT_ID": "1993-036ADV", "EPOCH": "2025-12-18T16:59:24.510912", "MEAN_MOTION": 14.60083944, "ECCENTRICITY": 0.00538295, "INCLINATION": 74.0414, "RA_OF_ASC_NODE": 78.0616, "ARG_OF_PERICENTER": 161.3174, "MEAN_ANOMALY": 325.9687, "EPHEMERIS_TYPE": 0, "CLASSIFICATION_TYPE": "U", "NORAD_CAT_ID": 34924, "ELEMENT_SET_NO": 999, "REV_AT_EPOCH": 87810, "BSTAR": 0.00066267792, "MEAN_MOTION_DOT": 3.222e-05, "MEAN_MOTION_DDOT": 0}, "tle": {"line1": "1 34924U 93036ADV 25352.70792258  .00003222  00000+0  66268-3 0  9999", "line2": "2 34924  74.0414  78.0616 0053829 161.3174 325.9687 14.60083944878105"}}, "geometry": {"type": "Point", "coordinates": [60.8336008362797, -44.12751425820049]}}, {"type": "Feature", "properties": {"norad_id": 34944, "name": "COSMOS 2251 DEB", "group": "cosmos-2251-debris", "lat": 54.280162290304546, "lon": -115.85060943025817, "alt_km": 682.4607206342534, "timestamp": "2025-12-19T06:59:44.302236+00:00", "meta": {"OBJECT_NAME": "COSMOS 2251 DEB", "OBJECT_ID": "1993-036ADX", "EPOCH": "2025-12-17T02:06:11.847168", "MEAN_MOTION": 14.14195665, "ECCENTRICITY": 0.02198727, "INCLINATION": 73.7495, "RA_OF_ASC_NODE": 224.195, "ARG_OF_PERICENTER": 70.8954, "MEAN_ANOMALY": 291.5851, "EPHEMERIS_TYPE": 0, "CLASSIFICATION_TYPE": "U", "NORAD_CAT_ID": 34944, "ELEMENT_SET_NO": 999, "REV_AT_EPOCH": 64144, "BSTAR": 0.00030334686, "MEAN_MOTION_DOT": 7.03e-06, "MEAN_MOTION_DDOT": 0}, "tle": {"line1": "1 34944U 93036ADX 25351.08763712  .00000703  00000+0  30335-3 0  9991", "line2": "2 34944  73.7495 224.1950 0219872  70.8954 291.5851 14.14195665641448"}}, "geometry": {"type": "Point", "coordinates": [-115.85060943025817, 54.280162290304546]}}, {"type": "Feature", "properties": {"norad_id": 34946, "name": "COSMOS 2251 DEB", "group": "cosmos-2251-debris", "lat": -23.59620521571377, "lon": 156.7492577402315, "alt_km": 697.4307327914239, "timestamp": "2025-12-19T06:59:44.302246+00:00", "meta": {"OBJECT_NAME": "COSMOS 2251 DEB", "OBJECT_ID": "1993-036ADZ", "EPOCH": "2025-12-18T15:17:17.396160", "MEAN_MOTION": 14.62025855, "ECCENTRICITY": 0.00485761, "INCLINATION": 74.0231, "RA_OF_ASC_NODE": 330.8135, "ARG_OF_PERICENTER": 106.1456, "MEAN_ANOMALY": 254.5065, "EPHEMERIS_TYPE": 0, "CLASSIFICATION_TYPE": "U", "NORAD_CAT_ID": 34946, "ELEMENT_SET_NO": 999, "REV_AT_EPOCH": 88295, "BSTAR": 0.00041379352, "MEAN_MOTION_DOT": 2.081e-05, "MEAN_MOTION_DDOT": 0}, "tle": {"line1": "1 34946U 93036ADZ 25352.63700690  .00002081  00000+0  41379-3 0  9992", "line2": "2 34946  74.0231 330.8135 0048576 106.1456 254.5065 14.62025855882958"}}, "geometry": {"type": "Point", "coordinates": [156.7492577402315, -23.59620521571377]}}, {"type": "Feature", "properties": {"norad_id": 34949, "name": "COSMOS 2251 DEB", "group": "cosmos-2251-debris", "lat": 24.084423657970987, "lon": 104.2202917060316, "alt_km": 693.0723754369201, "timestamp": "2025-12-19T06:59:44.302256+00:00", "meta": {"OBJECT_NAME": "COSMOS 2251 DEB", "OBJECT_ID": "1993-036AEC", "EPOCH": "2025-12-16T00:41:42.487008", "MEAN_MOTION": 14.74023339, "ECCENTRICITY": 0.00802648, "INCLINATION": 74.0185, "RA_OF_ASC_NODE": 103.231, "ARG_OF_PERICENTER": 247.8557, "MEAN_ANOMALY": 111.4083, "EPHEMERIS_TYPE": 0, "CLASSIFICATION_TYPE": "U", "NORAD_CAT_ID": 34949, "ELEMENT_SET_NO": 999, "REV_AT_EPOCH": 88410, "BSTAR": 0.00040106171, "MEAN_MOTION_DOT": 2.742e-05, "MEAN_MOTION_DDOT": 0}, "tle": {"line1": "1 34949U 93036AEC 25350.02896397  .00002742  00000+0  40106-3 0  9997", "line2": "2 34949  74.0185 103.2310 0080264 247.8557 111.4083 14.74023339884109"}}, "geometry": {"type": "Point", "coordinates": [104.2202917060316, 24.084423657970987]}}, {"type": "Feature", "properties": {"norad_id": 34953, "name": "COSMOS 2251 DEB", "group": "cosmos-2251-debris", "lat": -57.05130182582708, "lon": -139.04514749532527, "alt_km": 693.9725522971385, "timestamp": "2025-12-19T06:59:44.302266+00:00", "meta": {"OBJECT_NAME": "COSMOS 2251 DEB", "OBJECT_ID": "1993-036AEG", "EPOCH": "2025-12-18T18:58:35.355936", "MEAN_MOTION": 14.69007223, "ECCENTRICITY": 0.00583881, "INCLINATION": 74.0928, "RA_OF_ASC_NODE": 15.8163, "ARG_OF_PERICENTER": 6.0992, "MEAN_ANOMALY": 107.8231, "EPHEMERIS_TYPE": 0, "CLASSIFICATION_TYPE": "U", "NORAD_CAT_ID": 34953, "ELEMENT_SET_NO": 999, "REV_AT_EPOCH": 88217, "BSTAR": 0.00055031984, "MEAN_MOTION_DOT": 3.28e-05, "MEAN_MOTION_DDOT": 0}, "tle": {"line1": "1 34953U 93036AEG 25352.79068699  .00003280  00000+0  55032-3 0  9996", "line2": "2 34953  74.0928  15.8163 0058388   6.0992 107.8231 14.69007223882170"}}, "geometry": {"type": "Point", "coordinates": [-139.04514749532527, -57.05130182582708]}}, {"type": "Feature", "properties": {"norad_id": 34955, "name": "COSMOS 2251 DEB", "group": "cosmos-2251-debris", "lat": 38.57410684872109, "lon": -113.62618458460669, "alt_km": 569.9448270096254, "timestamp": "2025-12-19T06:59:44.302276+00:00", "meta": {"OBJECT_NAME": "COSMOS 2251 DEB", "OBJECT_ID": "1993-036AEJ", "EPOCH": "2025-12-17T22:49:00.130944", "MEAN_MOTION": 15.00628919, "ECCENTRICITY": 0.00778127, "INCLINATION": 74.0384, "RA_OF_ASC_NODE": 235.9048, "ARG_OF_PERICENTER": 304.378, "MEAN_ANOMALY": 55.0064, "EPHEMERIS_TYPE": 0, "CLASSIFICATION_TYPE": "U", "NORAD_CAT_ID": 34955, "ELEMENT_SET_NO": 999, "REV_AT_EPOCH": 90112, "BSTAR": 0.00052844899, "MEAN_MOTION_DOT": 7.088e-05, "MEAN_MOTION_DDOT": 0}, "tle": {"line1": "1 34955U 93036AEJ 25351.95069596  .00007088  00000+0  52845-3 0  9991", "line2": "2 34955  74.0384 235.9048 0077812 304.3780  55.0064 15.00628919901129"}}, "geometry": {"type": "Point", "coordinates": [-113.62618458460669, 38.57410684872109]}}]}